GLOBALSTAR M023         
1 25621U 99004A   25226.29770738 -.00000087  00000+0  95337-4 0  9994
2 25621  52.0081 236.4943 0010054 254.5000 118.4050 12.62502050223077
GLOBALSTAR M040         
1 25622U 99004B   25226.48526148 -.00000074  00000+0  16850-3 0  9998
2 25622  51.9893 240.1652 0000936 156.3330 358.1540 12.62015032222614
GLOBALSTAR M036         
1 25623U 99004C   25226.58095471 -.00000060  00000+0  32948-3 0  9991
2 25623  51.9967  86.4072 0010949 158.7608 240.6257 11.86606215185918
GLOBALSTAR M038         
1 25624U 99004D   25226.50430199 -.00000074  00000+0  17288-3 0  9999
2 25624  51.9958 263.6280 0002048 172.2490 335.7946 12.32530578209569
GLOBALSTAR M022         
1 25649U 99012A   25226.75215959 -.00000093  00000+0 -75240-4 0  9992
2 25649  52.0036 131.6952 0002365 303.7318  90.5609 12.02502453183423
GLOBALSTAR M041         
1 25650U 99012B   25226.85388347 -.00000056  00000+0  38415-3 0  9997
2 25650  52.0043  14.6589 0002289  80.5265 279.5830 11.96681560185308
GLOBALSTAR M046         
1 25651U 99012C   25226.78645759 -.00000179  00000+0 -99694-3 0  9996
2 25651  52.0055  79.5965 0002589  27.3260  80.7045 12.09411876190758
GLOBALSTAR M037         
1 25652U 99012D   25226.67503826 -.00000074  00000+0  16408-3 0  9998
2 25652  52.0032   5.9423 0001469 337.9242  35.4192 12.62449608218666
